ORBCOMM FM33            
1 25983U 99065D   24160.85733591  .00002132  00000+0  74733-3 0  9994
2 25983  45.0294 330.9635 0007674 339.0843  20.9691 14.37820510282365
ORBCOMM FM36            
1 25984U 99065E   24160.45295138  .00002632  00000+0  95091-3 0  9996
2 25984  45.0403  58.8722 0002852 228.1894 131.8710 14.35718666280669
ORBCOMM FM35            
1 25985U 99065F   24160.43414769  .00001771  00000+0  66199-3 0  9998
2 25985  45.0409  61.7065 0003921 332.0388  28.0249 14.35262040281058
ORBCOMM FM34            
1 25986U 99065G   24160.40520829  .00001927  00000+0  71632-3 0  9992
2 25986  45.0403  62.3839 0003745 282.0634  77.9794 14.35233202281169
ORBCOMM FM38            
1 33060U 08031A   24160.64309514  .00003653  00000+0  53226-3 0  9996
2 33060  48.4412 290.7415 0006287 242.5654 117.4621 14.77758250859433
ORBCOMM FM41            
1 33061U 08031B   24160.85446675  .00003737  00000+0  54723-3 0  9996
2 33061  48.4449 296.4301 0005318 231.4941 261.8087 14.77487406859400
ORBCOMM FM29            
1 33062U 08031C   24160.84859434  .00004028  00000+0  58831-3 0  9995
2 33062  48.4403 304.4947 0007173 227.8155 289.3065 14.77429302859260
ORBCOMM FM39            
1 33063U 08031D   24160.87230433  .00003388  00000+0  51141-3 0  9996
2 33063  48.4412 325.1230 0007865 202.8773 157.1791 14.76396870858992
