<?xml version="1.0" encoding="UTF-8"?>
<ndm xmlns:xsi="http://www.w3.org/2001/XMLSchema-instance" xsi:noNamespaceSchemaLocation="https://sanaregistry.org/r/ndmxml_unqualified/ndmxml-2.0.0-master-2.0.xsd">
<omm id="CCSDS_OMM_VERS" version="2.0">
<header><CREATION_DATE/><ORIGINATOR/></header><body><segment><metadata><OBJECT_NAME>ORBCOMM FM33</OBJECT_NAME><OBJECT_ID>1999-065D</OBJECT_ID><CENTER_NAME>EARTH</CENTER_NAME><REF_FRAME>TEME</REF_FRAME><TIME_SYSTEM>UTC</TIME_SYSTEM><MEAN_ELEMENT_THEORY>SGP4</MEAN_ELEMENT_THEORY></metadata><data><meanElements><EPOCH>2024-06-08T20:34:33.822624</EPOCH><MEAN_MOTION>14.37820510</MEAN_MOTION><ECCENTRICITY>.0007674</ECCENTRICITY><INCLINATION>45.0294</INCLINATION><RA_OF_ASC_NODE>330.9635</RA_OF_ASC_NODE><ARG_OF_PERICENTER>339.0843</ARG_OF_PERICENTER><MEAN_ANOMALY>20.9691</MEAN_ANOMALY></meanElements><tleParameters><EPHEMERIS_TYPE>0</EPHEMERIS_TYPE><CLASSIFICATION_TYPE>U</CLASSIFICATION_TYPE><NORAD_CAT_ID>25983</NORAD_CAT_ID><ELEMENT_SET_NO>999</ELEMENT_SET_NO><REV_AT_EPOCH>28236</REV_AT_EPOCH><BSTAR>.74733E-3</BSTAR><MEAN_MOTION_DOT>.2132E-4</MEAN_MOTION_DOT><MEAN_MOTION_DDOT>0</MEAN_MOTION_DDOT></tleParameters></data></segment></body></omm>
<omm id="CCSDS_OMM_VERS" version="2.0">
<header><CREATION_DATE/><ORIGINATOR/></header><body><segment><metadata><OBJECT_NAME>ORBCOMM FM36</OBJECT_NAME><OBJECT_ID>1999-065E</OBJECT_ID><CENTER_NAME>EARTH</CENTER_NAME><REF_FRAME>TEME</REF_FRAME><TIME_SYSTEM>UTC</TIME_SYSTEM><MEAN_ELEMENT_THEORY>SGP4</MEAN_ELEMENT_THEORY></metadata><data><meanElements><EPOCH>2024-06-08T10:52:14.999232</EPOCH><MEAN_MOTION>14.35718666</MEAN_MOTION><ECCENTRICITY>.0002852</ECCENTRICITY><INCLINATION>45.0403</INCLINATION><RA_OF_ASC_NODE>58.8722</RA_OF_ASC_NODE><ARG_OF_PERICENTER>228.1894</ARG_OF_PERICENTER><MEAN_ANOMALY>131.8710</MEAN_ANOMALY></meanElements><tleParameters><EPHEMERIS_TYPE>0</EPHEMERIS_TYPE><CLASSIFICATION_TYPE>U</CLASSIFICATION_TYPE><NORAD_CAT_ID>25984</NORAD_CAT_ID><ELEMENT_SET_NO>999</ELEMENT_SET_NO><REV_AT_EPOCH>28066</REV_AT_EPOCH><BSTAR>.95091E-3</BSTAR><MEAN_MOTION_DOT>.2632E-4</MEAN_MOTION_DOT><MEAN_MOTION_DDOT>0</MEAN_MOTION_DDOT></tleParameters></data></segment></body></omm>
<omm id="CCSDS_OMM_VERS" version="2.0">
<header><CREATION_DATE/><ORIGINATOR/></header><body><segment><metadata><OBJECT_NAME>ORBCOMM FM35</OBJECT_NAME><OBJECT_ID>1999-065F</OBJECT_ID><CENTER_NAME>EARTH</CENTER_NAME><REF_FRAME>TEME</REF_FRAME><TIME_SYSTEM>UTC</TIME_SYSTEM><MEAN_ELEMENT_THEORY>SGP4</MEAN_ELEMENT_THEORY></metadata><data><meanElements><EPOCH>2024-06-08T10:25:10.360416</EPOCH><MEAN_MOTION>14.35262040</MEAN_MOTION><ECCENTRICITY>.0003921</ECCENTRICITY><INCLINATION>45.0409</INCLINATION><RA_OF_ASC_NODE>61.7065</RA_OF_ASC_NODE><ARG_OF_PERICENTER>332.0388</ARG_OF_PERICENTER><MEAN_ANOMALY>28.0249</MEAN_ANOMALY></meanElements><tleParameters><EPHEMERIS_TYPE>0</EPHEMERIS_TYPE><CLASSIFICATION_TYPE>U</CLASSIFICATION_TYPE><NORAD_CAT_ID>25985</NORAD_CAT_ID><ELEMENT_SET_NO>999</ELEMENT_SET_NO><REV_AT_EPOCH>28105</REV_AT_EPOCH><BSTAR>.66199E-3</BSTAR><MEAN_MOTION_DOT>.1771E-4</MEAN_MOTION_DOT><MEAN_MOTION_DDOT>0</MEAN_MOTION_DDOT></tleParameters></data></segment></body></omm>
<omm id="CCSDS_OMM_VERS" version="2.0">
<header><CREATION_DATE/><ORIGINATOR/></header><body><segment><metadata><OBJECT_NAME>ORBCOMM FM34</OBJECT_NAME><OBJECT_ID>1999-065G</OBJECT_ID><CENTER_NAME>EARTH</CENTER_NAME><REF_FRAME>TEME</REF_FRAME><TIME_SYSTEM>UTC</TIME_SYSTEM><MEAN_ELEMENT_THEORY>SGP4</MEAN_ELEMENT_THEORY></metadata><data><meanElements><EPOCH>2024-06-08T09:43:29.996256</EPOCH><MEAN_MOTION>14.35233202</MEAN_MOTION><ECCENTRICITY>.0003745</ECCENTRICITY><INCLINATION>45.0403</INCLINATION><RA_OF_ASC_NODE>62.3839</RA_OF_ASC_NODE><ARG_OF_PERICENTER>282.0634</ARG_OF_PERICENTER><MEAN_ANOMALY>77.9794</MEAN_ANOMALY></meanElements><tleParameters><EPHEMERIS_TYPE>0</EPHEMERIS_TYPE><CLASSIFICATION_TYPE>U</CLASSIFICATION_TYPE><NORAD_CAT_ID>25986</NORAD_CAT_ID><ELEMENT_SET_NO>999</ELEMENT_SET_NO><REV_AT_EPOCH>28116</REV_AT_EPOCH><BSTAR>.71632E-3</BSTAR><MEAN_MOTION_DOT>.1927E-4</MEAN_MOTION_DOT><MEAN_MOTION_DDOT>0</MEAN_MOTION_DDOT></tleParameters></data></segment></body></omm>
<omm id="CCSDS_OMM_VERS" version="2.0">
<header><CREATION_DATE/><ORIGINATOR/></header><body><segment><metadata><OBJECT_NAME>ORBCOMM FM38</OBJECT_NAME><OBJECT_ID>2008-031A</OBJECT_ID><CENTER_NAME>EARTH</CENTER_NAME><REF_FRAME>TEME</REF_FRAME><TIME_SYSTEM>UTC</TIME_SYSTEM><MEAN_ELEMENT_THEORY>SGP4</MEAN_ELEMENT_THEORY></metadata><data><meanElements><EPOCH>2024-06-08T15:26:03.420096</EPOCH><MEAN_MOTION>14.77758250</MEAN_MOTION><ECCENTRICITY>.0006287</ECCENTRICITY><INCLINATION>48.4412</INCLINATION><RA_OF_ASC_NODE>290.7415</RA_OF_ASC_NODE><ARG_OF_PERICENTER>242.5654</ARG_OF_PERICENTER><MEAN_ANOMALY>117.4621</MEAN_ANOMALY></meanElements><tleParameters><EPHEMERIS_TYPE>0</EPHEMERIS_TYPE><CLASSIFICATION_TYPE>U</CLASSIFICATION_TYPE><NORAD_CAT_ID>33060</NORAD_CAT_ID><ELEMENT_SET_NO>999</ELEMENT_SET_NO><REV_AT_EPOCH>85943</REV_AT_EPOCH><BSTAR>.53226E-3</BSTAR><MEAN_MOTION_DOT>.3653E-4</MEAN_MOTION_DOT><MEAN_MOTION_DDOT>0</MEAN_MOTION_DDOT></tleParameters></data></segment></body></omm>
<omm id="CCSDS_OMM_VERS" version="2.0">
<header><CREATION_DATE/><ORIGINATOR/></header><body><segment><metadata><OBJECT_NAME>ORBCOMM FM41</OBJECT_NAME><OBJECT_ID>2008-031B</OBJECT_ID><CENTER_NAME>EARTH</CENTER_NAME><REF_FRAME>TEME</REF_FRAME><TIME_SYSTEM>UTC</TIME_SYSTEM><MEAN_ELEMENT_THEORY>SGP4</MEAN_ELEMENT_THEORY></metadata><data><meanElements><EPOCH>2024-06-08T20:30:25.927200</EPOCH><MEAN_MOTION>14.77487406</MEAN_MOTION><ECCENTRICITY>.0005318</ECCENTRICITY><INCLINATION>48.4449</INCLINATION><RA_OF_ASC_NODE>296.4301</RA_OF_ASC_NODE><ARG_OF_PERICENTER>231.4941</ARG_OF_PERICENTER><MEAN_ANOMALY>261.8087</MEAN_ANOMALY></meanElements><tleParameters><EPHEMERIS_TYPE>0</EPHEMERIS_TYPE><CLASSIFICATION_TYPE>U</CLASSIFICATION_TYPE><NORAD_CAT_ID>33061</NORAD_CAT_ID><ELEMENT_SET_NO>999</ELEMENT_SET_NO><REV_AT_EPOCH>85940</REV_AT_EPOCH><BSTAR>.54723E-3</BSTAR><MEAN_MOTION_DOT>.3737E-4</MEAN_MOTION_DOT><MEAN_MOTION_DDOT>0</MEAN_MOTION_DDOT></tleParameters></data></segment></body></omm>
<omm id="CCSDS_OMM_VERS" version="2.0">
<header><CREATION_DATE/><ORIGINATOR/></header><body><segment><metadata><OBJECT_NAME>ORBCOMM FM29</OBJECT_NAME><OBJECT_ID>2008-031C</OBJECT_ID><CENTER_NAME>EARTH</CENTER_NAME><REF_FRAME>TEME</REF_FRAME><TIME_SYSTEM>UTC</TIME_SYSTEM><MEAN_ELEMENT_THEORY>SGP4</MEAN_ELEMENT_THEORY></metadata><data><meanElements><EPOCH>2024-06-08T20:21:58.550976</EPOCH><MEAN_MOTION>14.77429302</MEAN_MOTION><ECCENTRICITY>.0007173</ECCENTRICITY><INCLINATION>48.4403</INCLINATION><RA_OF_ASC_NODE>304.4947</RA_OF_ASC_NODE><ARG_OF_PERICENTER>227.8155</ARG_OF_PERICENTER><MEAN_ANOMALY>289.3065</MEAN_ANOMALY></meanElements><tleParameters><EPHEMERIS_TYPE>0</EPHEMERIS_TYPE><CLASSIFICATION_TYPE>U</CLASSIFICATION_TYPE><NORAD_CAT_ID>33062</NORAD_CAT_ID><ELEMENT_SET_NO>999</ELEMENT_SET_NO><REV_AT_EPOCH>85926</REV_AT_EPOCH><BSTAR>.58831E-3</BSTAR><MEAN_MOTION_DOT>.4028E-4</MEAN_MOTION_DOT><MEAN_MOTION_DDOT>0</MEAN_MOTION_DDOT></tleParameters></data></segment></body></omm>
<omm id="CCSDS_OMM_VERS" version="2.0">
<header><CREATION_DATE/><ORIGINATOR/></header><body><segment><metadata><OBJECT_NAME>ORBCOMM FM39</OBJECT_NAME><OBJECT_ID>2008-031D</OBJECT_ID><CENTER_NAME>EARTH</CENTER_NAME><REF_FRAME>TEME</REF_FRAME><TIME_SYSTEM>UTC</TIME_SYSTEM><MEAN_ELEMENT_THEORY>SGP4</MEAN_ELEMENT_THEORY></metadata><data><meanElements><EPOCH>2024-06-08T20:56:07.094112</EPOCH><MEAN_MOTION>14.76396870</MEAN_MOTION><ECCENTRICITY>.0007865</ECCENTRICITY><INCLINATION>48.4412</INCLINATION><RA_OF_ASC_NODE>325.1230</RA_OF_ASC_NODE><ARG_OF_PERICENTER>202.8773</ARG_OF_PERICENTER><MEAN_ANOMALY>157.1791</MEAN_ANOMALY></meanElements><tleParameters><EPHEMERIS_TYPE>0</EPHEMERIS_TYPE><CLASSIFICATION_TYPE>U</CLASSIFICATION_TYPE><NORAD_CAT_ID>33063</NORAD_CAT_ID><ELEMENT_SET_NO>999</ELEMENT_SET_NO><REV_AT_EPOCH>85899</REV_AT_EPOCH><BSTAR>.51141E-3</BSTAR><MEAN_MOTION_DOT>.3388E-4</MEAN_MOTION_DOT><MEAN_MOTION_DDOT>0</MEAN_MOTION_DDOT></tleParameters></data></segment></body></omm>

</ndm>
